<?xml version="1.0" encoding="UTF-8"?>
<ndm xmlns:xsi="http://www.w3.org/2001/XMLSchema-instance" xsi:noNamespaceSchemaLocation="https://sanaregistry.org/r/ndmxml_unqualified/ndmxml-2.0.0-master-2.0.xsd">
<omm id="CCSDS_OMM_VERS" version="2.0">
<header><CREATION_DATE/><ORIGINATOR/></header><body><segment><metadata><OBJECT_NAME>KUIPER-00016</OBJECT_NAME><OBJECT_ID>2025-088J</OBJECT_ID><CENTER_NAME>EARTH</CENTER_NAME><REF_FRAME>TEME</REF_FRAME><TIME_SYSTEM>UTC</TIME_SYSTEM><MEAN_ELEMENT_THEORY>SGP4</MEAN_ELEMENT_THEORY></metadata><data><meanElements><EPOCH>2025-08-11T06:00:02.000160</EPOCH><MEAN_MOTION>14.94069730</MEAN_MOTION><ECCENTRICITY>.0010933</ECCENTRICITY><INCLINATION>51.9047</INCLINATION><RA_OF_ASC_NODE>322.6497</RA_OF_ASC_NODE><ARG_OF_PERICENTER>96.5509</ARG_OF_PERICENTER><MEAN_ANOMALY>182.0417</MEAN_ANOMALY></meanElements><tleParameters><EPHEMERIS_TYPE>0</EPHEMERIS_TYPE><CLASSIFICATION_TYPE>U</CLASSIFICATION_TYPE><NORAD_CAT_ID>63732</NORAD_CAT_ID><ELEMENT_SET_NO>999</ELEMENT_SET_NO><REV_AT_EPOCH>1615</REV_AT_EPOCH><BSTAR>.17841E-2</BSTAR><MEAN_MOTION_DOT>.19073E-3</MEAN_MOTION_DOT><MEAN_MOTION_DDOT>0</MEAN_MOTION_DDOT></tleParameters></data></segment></body></omm>
<omm id="CCSDS_OMM_VERS" version="2.0">
<header><CREATION_DATE/><ORIGINATOR/></header><body><segment><metadata><OBJECT_NAME>KUIPER-00018</OBJECT_NAME><OBJECT_ID>2025-088K</OBJECT_ID><CENTER_NAME>EARTH</CENTER_NAME><REF_FRAME>TEME</REF_FRAME><TIME_SYSTEM>UTC</TIME_SYSTEM><MEAN_ELEMENT_THEORY>SGP4</MEAN_ELEMENT_THEORY></metadata><data><meanElements><EPOCH>2025-08-11T06:00:02.000160</EPOCH><MEAN_MOTION>15.16150964</MEAN_MOTION><ECCENTRICITY>.0010056</ECCENTRICITY><INCLINATION>51.8864</INCLINATION><RA_OF_ASC_NODE>316.1842</RA_OF_ASC_NODE><ARG_OF_PERICENTER>98.9467</ARG_OF_PERICENTER><MEAN_ANOMALY>224.6474</MEAN_ANOMALY></meanElements><tleParameters><EPHEMERIS_TYPE>0</EPHEMERIS_TYPE><CLASSIFICATION_TYPE>U</CLASSIFICATION_TYPE><NORAD_CAT_ID>63733</NORAD_CAT_ID><ELEMENT_SET_NO>999</ELEMENT_SET_NO><REV_AT_EPOCH>1624</REV_AT_EPOCH><BSTAR>-.407E-1</BSTAR><MEAN_MOTION_DOT>-.740988E-2</MEAN_MOTION_DOT><MEAN_MOTION_DDOT>0</MEAN_MOTION_DDOT></tleParameters></data></segment></body></omm>
<omm id="CCSDS_OMM_VERS" version="2.0">
<header><CREATION_DATE/><ORIGINATOR/></header><body><segment><metadata><OBJECT_NAME>KUIPER-00019</OBJECT_NAME><OBJECT_ID>2025-088L</OBJECT_ID><CENTER_NAME>EARTH</CENTER_NAME><REF_FRAME>TEME</REF_FRAME><TIME_SYSTEM>UTC</TIME_SYSTEM><MEAN_ELEMENT_THEORY>SGP4</MEAN_ELEMENT_THEORY></metadata><data><meanElements><EPOCH>2025-08-11T06:00:02.000160</EPOCH><MEAN_MOTION>15.19424135</MEAN_MOTION><ECCENTRICITY>.0007137</ECCENTRICITY><INCLINATION>51.8764</INCLINATION><RA_OF_ASC_NODE>315.1684</RA_OF_ASC_NODE><ARG_OF_PERICENTER>113.7919</ARG_OF_PERICENTER><MEAN_ANOMALY>343.7748</MEAN_ANOMALY></meanElements><tleParameters><EPHEMERIS_TYPE>0</EPHEMERIS_TYPE><CLASSIFICATION_TYPE>U</CLASSIFICATION_TYPE><NORAD_CAT_ID>63734</NORAD_CAT_ID><ELEMENT_SET_NO>999</ELEMENT_SET_NO><REV_AT_EPOCH>1626</REV_AT_EPOCH><BSTAR>-.25881E-1</BSTAR><MEAN_MOTION_DOT>-.518654E-2</MEAN_MOTION_DOT><MEAN_MOTION_DDOT>0</MEAN_MOTION_DDOT></tleParameters></data></segment></body></omm>
<omm id="CCSDS_OMM_VERS" version="2.0">
<header><CREATION_DATE/><ORIGINATOR/></header><body><segment><metadata><OBJECT_NAME>KUIPER-00020</OBJECT_NAME><OBJECT_ID>2025-088M</OBJECT_ID><CENTER_NAME>EARTH</CENTER_NAME><REF_FRAME>TEME</REF_FRAME><TIME_SYSTEM>UTC</TIME_SYSTEM><MEAN_ELEMENT_THEORY>SGP4</MEAN_ELEMENT_THEORY></metadata><data><meanElements><EPOCH>2025-08-10T23:18:55.471104</EPOCH><MEAN_MOTION>15.13405860</MEAN_MOTION><ECCENTRICITY>.000691</ECCENTRICITY><INCLINATION>51.8848</INCLINATION><RA_OF_ASC_NODE>318.5881</RA_OF_ASC_NODE><ARG_OF_PERICENTER>108.6793</ARG_OF_PERICENTER><MEAN_ANOMALY>251.4935</MEAN_ANOMALY></meanElements><tleParameters><EPHEMERIS_TYPE>0</EPHEMERIS_TYPE><CLASSIFICATION_TYPE>U</CLASSIFICATION_TYPE><NORAD_CAT_ID>63735</NORAD_CAT_ID><ELEMENT_SET_NO>999</ELEMENT_SET_NO><REV_AT_EPOCH>1640</REV_AT_EPOCH><BSTAR>.63368E-3</BSTAR><MEAN_MOTION_DOT>.11174E-3</MEAN_MOTION_DOT><MEAN_MOTION_DDOT>0</MEAN_MOTION_DDOT></tleParameters></data></segment></body></omm>
<omm id="CCSDS_OMM_VERS" version="2.0">
<header><CREATION_DATE/><ORIGINATOR/></header><body><segment><metadata><OBJECT_NAME>KUIPER-00021</OBJECT_NAME><OBJECT_ID>2025-088N</OBJECT_ID><CENTER_NAME>EARTH</CENTER_NAME><REF_FRAME>TEME</REF_FRAME><TIME_SYSTEM>UTC</TIME_SYSTEM><MEAN_ELEMENT_THEORY>SGP4</MEAN_ELEMENT_THEORY></metadata><data><meanElements><EPOCH>2025-08-10T13:27:48.930336</EPOCH><MEAN_MOTION>15.13392150</MEAN_MOTION><ECCENTRICITY>.000728</ECCENTRICITY><INCLINATION>51.8748</INCLINATION><RA_OF_ASC_NODE>321.1763</RA_OF_ASC_NODE><ARG_OF_PERICENTER>94.2884</ARG_OF_PERICENTER><MEAN_ANOMALY>265.8925</MEAN_ANOMALY></meanElements><tleParameters><EPHEMERIS_TYPE>0</EPHEMERIS_TYPE><CLASSIFICATION_TYPE>U</CLASSIFICATION_TYPE><NORAD_CAT_ID>63736</NORAD_CAT_ID><ELEMENT_SET_NO>999</ELEMENT_SET_NO><REV_AT_EPOCH>1616</REV_AT_EPOCH><BSTAR>.71101E-3</BSTAR><MEAN_MOTION_DOT>.12573E-3</MEAN_MOTION_DOT><MEAN_MOTION_DDOT>0</MEAN_MOTION_DDOT></tleParameters></data></segment></body></omm>
<omm id="CCSDS_OMM_VERS" version="2.0">
<header><CREATION_DATE/><ORIGINATOR/></header><body><segment><metadata><OBJECT_NAME>KUIPER-00023</OBJECT_NAME><OBJECT_ID>2025-088P</OBJECT_ID><CENTER_NAME>EARTH</CENTER_NAME><REF_FRAME>TEME</REF_FRAME><TIME_SYSTEM>UTC</TIME_SYSTEM><MEAN_ELEMENT_THEORY>SGP4</MEAN_ELEMENT_THEORY></metadata><data><meanElements><EPOCH>2025-08-10T23:07:31.900224</EPOCH><MEAN_MOTION>15.12489209</MEAN_MOTION><ECCENTRICITY>.0009759</ECCENTRICITY><INCLINATION>51.8825</INCLINATION><RA_OF_ASC_NODE>320.1205</RA_OF_ASC_NODE><ARG_OF_PERICENTER>108.9910</ARG_OF_PERICENTER><MEAN_ANOMALY>251.2125</MEAN_ANOMALY></meanElements><tleParameters><EPHEMERIS_TYPE>0</EPHEMERIS_TYPE><CLASSIFICATION_TYPE>U</CLASSIFICATION_TYPE><NORAD_CAT_ID>63737</NORAD_CAT_ID><ELEMENT_SET_NO>999</ELEMENT_SET_NO><REV_AT_EPOCH>1651</REV_AT_EPOCH><BSTAR>-.10915E-1</BSTAR><MEAN_MOTION_DOT>-.187948E-2</MEAN_MOTION_DOT><MEAN_MOTION_DDOT>0</MEAN_MOTION_DDOT></tleParameters></data></segment></body></omm>
<omm id="CCSDS_OMM_VERS" version="2.0">
<header><CREATION_DATE/><ORIGINATOR/></header><body><segment><metadata><OBJECT_NAME>KUIPER-00024</OBJECT_NAME><OBJECT_ID>2025-088Q</OBJECT_ID><CENTER_NAME>EARTH</CENTER_NAME><REF_FRAME>TEME</REF_FRAME><TIME_SYSTEM>UTC</TIME_SYSTEM><MEAN_ELEMENT_THEORY>SGP4</MEAN_ELEMENT_THEORY></metadata><data><meanElements><EPOCH>2025-08-11T06:00:02.000160</EPOCH><MEAN_MOTION>15.34822433</MEAN_MOTION><ECCENTRICITY>.0001605</ECCENTRICITY><INCLINATION>51.8733</INCLINATION><RA_OF_ASC_NODE>313.4009</RA_OF_ASC_NODE><ARG_OF_PERICENTER>125.8869</ARG_OF_PERICENTER><MEAN_ANOMALY>88.5874</MEAN_ANOMALY></meanElements><tleParameters><EPHEMERIS_TYPE>0</EPHEMERIS_TYPE><CLASSIFICATION_TYPE>U</CLASSIFICATION_TYPE><NORAD_CAT_ID>63738</NORAD_CAT_ID><ELEMENT_SET_NO>999</ELEMENT_SET_NO><REV_AT_EPOCH>1675</REV_AT_EPOCH><BSTAR>-.17393E-1</BSTAR><MEAN_MOTION_DOT>-.55466E-2</MEAN_MOTION_DOT><MEAN_MOTION_DDOT>0</MEAN_MOTION_DDOT></tleParameters></data></segment></body></omm>
<omm id="CCSDS_OMM_VERS" version="2.0">
<header><CREATION_DATE/><ORIGINATOR/></header><body><segment><metadata><OBJECT_NAME>KUIPER-00025</OBJECT_NAME><OBJECT_ID>2025-088R</OBJECT_ID><CENTER_NAME>EARTH</CENTER_NAME><REF_FRAME>TEME</REF_FRAME><TIME_SYSTEM>UTC</TIME_SYSTEM><MEAN_ELEMENT_THEORY>SGP4</MEAN_ELEMENT_THEORY></metadata><data><meanElements><EPOCH>2025-08-11T06:00:02.000160</EPOCH><MEAN_MOTION>15.14279957</MEAN_MOTION><ECCENTRICITY>.000896</ECCENTRICITY><INCLINATION>51.8841</INCLINATION><RA_OF_ASC_NODE>316.2992</RA_OF_ASC_NODE><ARG_OF_PERICENTER>100.5110</ARG_OF_PERICENTER><MEAN_ANOMALY>94.9193</MEAN_ANOMALY></meanElements><tleParameters><EPHEMERIS_TYPE>0</EPHEMERIS_TYPE><CLASSIFICATION_TYPE>U</CLASSIFICATION_TYPE><NORAD_CAT_ID>63739</NORAD_CAT_ID><ELEMENT_SET_NO>999</ELEMENT_SET_NO><REV_AT_EPOCH>1657</REV_AT_EPOCH><BSTAR>.16823E-2</BSTAR><MEAN_MOTION_DOT>.31022E-3</MEAN_MOTION_DOT><MEAN_MOTION_DDOT>0</MEAN_MOTION_DDOT></tleParameters></data></segment></body></omm>

</ndm>
