KUIPER-00016            
1 63732U 25088J   25223.25002315  .00019073  00000+0  17841-2 0  9998
2 63732  51.9047 322.6497 0010933  96.5509 182.0417 14.94069730 16151
KUIPER-00018            
1 63733U 25088K   25223.25002315 -.00740988  00000+0 -40700-1 0  9996
2 63733  51.8864 316.1842 0010056  98.9467 224.6474 15.16150964 16246
KUIPER-00019            
1 63734U 25088L   25223.25002315 -.00518654  00000+0 -25881-1 0  9993
2 63734  51.8764 315.1684 0007137 113.7919 343.7748 15.19424135 16269
KUIPER-00020            
1 63735U 25088M   25222.97147536  .00011174  00000+0  63368-3 0  9994
2 63735  51.8848 318.5881 0006910 108.6793 251.4935 15.13405860 16407
KUIPER-00021            
1 63736U 25088N   25222.56098299  .00012573  00000+0  71101-3 0  9999
2 63736  51.8748 321.1763 0007280  94.2884 265.8925 15.13392150 16166
KUIPER-00023            
1 63737U 25088P   25222.96356366 -.00187948  00000+0 -10915-1 0  9991
2 63737  51.8825 320.1205 0009759 108.9910 251.2125 15.12489209 16510
KUIPER-00024            
1 63738U 25088Q   25223.25002315 -.00554660  00000+0 -17393-1 0  9993
2 63738  51.8733 313.4009 0001605 125.8869  88.5874 15.34822433 16751
KUIPER-00025            
1 63739U 25088R   25223.25002315  .00031022  00000+0  16823-2 0  9992
2 63739  51.8841 316.2992 0008960 100.5110  94.9193 15.14279957 16574
